{
  "type": "FeatureCollection",
  "features": [
    {
      "type": "Feature",
      "properties": {
        "norad_id": 58647,
        "name": "TIANMU-1 13",
        "group": "weather",
        "lat": 9.366779046519033,
        "lon": 19.016001103823704,
        "alt_km": 497.94544922335353,
        "timestamp": "2025-12-26T20:30:45.581229+00:00",
        "meta_object_name": "TIANMU-1 13",
        "meta_object_id": "2023-205C",
        "meta_epoch": "2025-12-26T14:10:15.332736",
        "meta_mean_motion": 15.2469765,
        "meta_eccentricity": 0.00067883,
        "meta_inclination": 97.3616,
        "meta_ra_of_asc_node": 19.9783,
        "meta_arg_of_pericenter": 207.2064,
        "meta_mean_anomaly": 152.8819,
        "meta_ephemeris_type": 0,
        "meta_classification_type": "U",
        "meta_norad_cat_id": 58647,
        "meta_element_set_no": 999,
        "meta_rev_at_epoch": 11118,
        "meta_bstar": 0.00027701833,
        "meta_mean_motion_dot": 6.784e-05,
        "meta_mean_motion_ddot": 0,
        "tle_line1": "1 58647U 23205C   25360.59045524  .00006784  00000+0  27702-3 0  9997",
        "tle_line2": "2 58647  97.3616  19.9783 0006788 207.2064 152.8819 15.24697650111182"
      },
      "geometry": {
        "type": "Point",
        "coordinates": [
          19.016001103823704,
          9.366779046519033
        ]
      }
    },
    {
      "type": "Feature",
      "properties": {
        "norad_id": 58648,
        "name": "TIANMU-1 14",
        "group": "weather",
        "lat": 77.86891653550818,
        "lon": -123.49112065886798,
        "alt_km": 486.43953189726744,
        "timestamp": "2025-12-26T20:30:45.581238+00:00",
        "meta_object_name": "TIANMU-1 14",
        "meta_object_id": "2023-205D",
        "meta_epoch": "2025-12-26T15:21:04.737024",
        "meta_mean_motion": 15.2468058,
        "meta_eccentricity": 0.0007468,
        "meta_inclination": 97.3548,
        "meta_ra_of_asc_node": 19.3624,
        "meta_arg_of_pericenter": 213.1226,
        "meta_mean_anomaly": 146.9545,
        "meta_ephemeris_type": 0,
        "meta_classification_type": "U",
        "meta_norad_cat_id": 58648,
        "meta_element_set_no": 999,
        "meta_rev_at_epoch": 11119,
        "meta_bstar": 0.00025884192,
        "meta_mean_motion_dot": 6.332e-05,
        "meta_mean_motion_ddot": 0,
        "tle_line1": "1 58648U 23205D   25360.63963816  .00006332  00000+0  25884-3 0  9994",
        "tle_line2": "2 58648  97.3548  19.3624 0007468 213.1226 146.9545 15.24680580111192"
      },
      "geometry": {
        "type": "Point",
        "coordinates": [
          -123.49112065886798,
          77.86891653550818
        ]
      }
    },
    {
      "type": "Feature",
      "properties": {
        "norad_id": 58660,
        "name": "TIANMU-1 19",
        "group": "weather",
        "lat": 13.482811128592111,
        "lon": -66.33915906466635,
        "alt_km": 479.67408629322654,
        "timestamp": "2025-12-26T20:30:45.581248+00:00",
        "meta_object_name": "TIANMU-1 19",
        "meta_object_id": "2023-208A",
        "meta_epoch": "2025-12-26T13:30:02.826144",
        "meta_mean_motion": 15.28102543,
        "meta_eccentricity": 0.00048979,
        "meta_inclination": 97.4385,
        "meta_ra_of_asc_node": 111.5741,
        "meta_arg_of_pericenter": 194.9987,
        "meta_mean_anomaly": 165.1108,
        "meta_ephemeris_type": 0,
        "meta_classification_type": "U",
        "meta_norad_cat_id": 58660,
        "meta_element_set_no": 999,
        "meta_rev_at_epoch": 11093,
        "meta_bstar": 0.00035351509,
        "meta_mean_motion_dot": 9.618e-05,
        "meta_mean_motion_ddot": 0,
        "tle_line1": "1 58660U 23208A   25360.56253271  .00009618  00000+0  35352-3 0  9991",
        "tle_line2": "2 58660  97.4385 111.5741 0004897 194.9987 165.1108 15.28102543110935"
      },
      "geometry": {
        "type": "Point",
        "coordinates": [
          -66.33915906466635,
          13.482811128592111
        ]
      }
    },
    {
      "type": "Feature",
      "properties": {
        "norad_id": 58661,
        "name": "TIANMU-1 20",
        "group": "weather",
        "lat": -58.26021326674234,
        "lon": 124.51039647171542,
        "alt_km": 485.2749981174529,
        "timestamp": "2025-12-26T20:30:45.581257+00:00",
        "meta_object_name": "TIANMU-1 20",
        "meta_object_id": "2023-208B",
        "meta_epoch": "2025-12-26T14:29:21.281856",
        "meta_mean_motion": 15.29294696,
        "meta_eccentricity": 0.00069207,
        "meta_inclination": 97.4322,
        "meta_ra_of_asc_node": 112.0766,
        "meta_arg_of_pericenter": 209.1488,
        "meta_mean_anomaly": 150.9367,
        "meta_ephemeris_type": 0,
        "meta_classification_type": "U",
        "meta_norad_cat_id": 58661,
        "meta_element_set_no": 999,
        "meta_rev_at_epoch": 11101,
        "meta_bstar": 0.00038847181,
        "meta_mean_motion_dot": 0.00010975,
        "meta_mean_motion_ddot": 0,
        "tle_line1": "1 58661U 23208B   25360.60371854  .00010975  00000+0  38847-3 0  9995",
        "tle_line2": "2 58661  97.4322 112.0766 0006920 209.1488 150.9367 15.29294696111015"
      },
      "geometry": {
        "type": "Point",
        "coordinates": [
          124.51039647171542,
          -58.26021326674234
        ]
      }
    },
    {
      "type": "Feature",
      "properties": {
        "norad_id": 58662,
        "name": "TIANMU-1 21",
        "group": "weather",
        "lat": 72.46474017569201,
        "lon": 89.87969700866205,
        "alt_km": 466.10236525863274,
        "timestamp": "2025-12-26T20:30:45.581266+00:00",
        "meta_object_name": "TIANMU-1 21",
        "meta_object_id": "2023-208C",
        "meta_epoch": "2025-12-26T13:55:08.860224",
        "meta_mean_motion": 15.31850356,
        "meta_eccentricity": 0.00065346,
        "meta_inclination": 97.4372,
        "meta_ra_of_asc_node": 114.0236,
        "meta_arg_of_pericenter": 203.462,
        "meta_mean_anomaly": 156.6325,
        "meta_ephemeris_type": 0,
        "meta_classification_type": "U",
        "meta_norad_cat_id": 58662,
        "meta_element_set_no": 999,
        "meta_rev_at_epoch": 11111,
        "meta_bstar": 0.00040395798,
        "meta_mean_motion_dot": 0.00012358,
        "meta_mean_motion_ddot": 0,
        "tle_line1": "1 58662U 23208C   25360.57996366  .00012358  00000+0  40396-3 0  9992",
        "tle_line2": "2 58662  97.4372 114.0236 0006534 203.4620 156.6325 15.31850356111113"
      },
      "geometry": {
        "type": "Point",
        "coordinates": [
          89.87969700866205,
          72.46474017569201
        ]
      }
    },
    {
      "type": "Feature",
      "properties": {
        "norad_id": 58663,
        "name": "TIANMU-1 22",
        "group": "weather",
        "lat": 25.10254309297724,
        "lon": -64.57275176740214,
        "alt_km": 480.6143216484252,
        "timestamp": "2025-12-26T20:30:45.581275+00:00",
        "meta_object_name": "TIANMU-1 22",
        "meta_object_id": "2023-208D",
        "meta_epoch": "2025-12-26T13:33:02.513952",
        "meta_mean_motion": 15.27838853,
        "meta_eccentricity": 0.00030725,
        "meta_inclination": 97.4379,
        "meta_ra_of_asc_node": 111.6289,
        "meta_arg_of_pericenter": 217.4776,
        "meta_mean_anomaly": 142.6249,
        "meta_ephemeris_type": 0,
        "meta_classification_type": "U",
        "meta_norad_cat_id": 58663,
        "meta_element_set_no": 999,
        "meta_rev_at_epoch": 11094,
        "meta_bstar": 0.00033764366,
        "meta_mean_motion_dot": 9.107e-05,
        "meta_mean_motion_ddot": 0,
        "tle_line1": "1 58663U 23208D   25360.56461243  .00009107  00000+0  33764-3 0  9992",
        "tle_line2": "2 58663  97.4379 111.6289 0003072 217.4776 142.6249 15.27838853110946"
      },
      "geometry": {
        "type": "Point",
        "coordinates": [
          -64.57275176740214,
          25.10254309297724
        ]
      }
    },
    {
      "type": "Feature",
      "properties": {
        "norad_id": 58700,
        "name": "TIANMU-1 15",
        "group": "weather",
        "lat": 58.385661766588534,
        "lon": 14.5674060840883,
        "alt_km": 487.8001124733446,
        "timestamp": "2025-12-26T20:30:45.581284+00:00",
        "meta_object_name": "TIANMU-1 15",
        "meta_object_id": "2024-004A",
        "meta_epoch": "2025-12-26T15:15:31.423968",
        "meta_mean_motion": 15.24593311,
        "meta_eccentricity": 0.00061245,
        "meta_inclination": 97.4631,
        "meta_ra_of_asc_node": 182.0533,
        "meta_arg_of_pericenter": 230.9787,
        "meta_mean_anomaly": 129.0905,
        "meta_ephemeris_type": 0,
        "meta_classification_type": "U",
        "meta_norad_cat_id": 58700,
        "meta_element_set_no": 999,
        "meta_rev_at_epoch": 10946,
        "meta_bstar": 0.00030544912,
        "meta_mean_motion_dot": 7.462e-05,
        "meta_mean_motion_ddot": 0,
        "tle_line1": "1 58700U 24004A   25360.63578037  .00007462  00000+0  30545-3 0  9993",
        "tle_line2": "2 58700  97.4631 182.0533 0006124 230.9787 129.0905 15.24593311109463"
      },
      "geometry": {
        "type": "Point",
        "coordinates": [
          14.5674060840883,
          58.385661766588534
        ]
      }
    }
  ]
}